{
    "links": {
        "self": "http://www.neowsapp.com/rest/v1/neo/3759348?api_key=iIulBulltgU6a56xZRHN4H3l9WmuAYTsLGpBGhQ2"
    },
    "id": "3759348",
    "neo_reference_id": "3759348",
    "name": "(2016 RP33)",
    "designation": "2016 RP33",
    "nasa_jpl_url": "http://ssd.jpl.nasa.gov/sbdb.cgi?sstr=3759348",
    "absolute_magnitude_h": 19.5,
    "estimated_diameter": {
        "kilometers": {
            "estimated_diameter_min": 0.3346223745,
            "estimated_diameter_max": 0.7482383761
        },
        "meters": {
            "estimated_diameter_min": 334.6223744549,
            "estimated_diameter_max": 748.2383760735
        },
        "miles": {
            "estimated_diameter_min": 0.2079246394,
            "estimated_diameter_max": 0.464933628
        },
        "feet": {
            "estimated_diameter_min": 1097.8424710066,
            "estimated_diameter_max": 2454.8503937571
        }
    },
    "is_potentially_hazardous_asteroid": false,
    "close_approach_data": [
        {
            "close_approach_date": "2016-09-16",
            "close_approach_date_full": "2016-Sep-16 17:09",
            "epoch_date_close_approach": 1474045740000,
            "relative_velocity": {
                "kilometers_per_second": "13.7249122395",
                "kilometers_per_hour": "49409.6840620632",
                "miles_per_hour": "30701.2561884525"
            },
            "miss_distance": {
                "astronomical": "0.2184022022",
                "lunar": "84.9584566558",
                "kilometers": "32672504.252429314",
                "miles": "20301752.7376759732"
            },
            "orbiting_body": "Earth"
        },
        {
            "close_approach_date": "2094-09-08",
            "close_approach_date_full": "2094-Sep-08 13:26",
            "epoch_date_close_approach": 3934790760000,
            "relative_velocity": {
                "kilometers_per_second": "15.0183349817",
                "kilometers_per_hour": "54066.0059342572",
                "miles_per_hour": "33594.51352065"
            },
            "miss_distance": {
                "astronomical": "0.2411382128",
                "lunar": "93.8027647792",
                "kilometers": "36073763.010486736",
                "miles": "22415196.9282235168"
            },
            "orbiting_body": "Earth"
        },
        {
            "close_approach_date": "2129-08-29",
            "close_approach_date_full": "2129-Aug-29 13:57",
            "epoch_date_close_approach": 5038379820000,
            "relative_velocity": {
                "kilometers_per_second": "17.1543653956",
                "kilometers_per_hour": "61755.7154241762",
                "miles_per_hour": "38372.5999534277"
            },
            "miss_distance": {
                "astronomical": "0.3506562557",
                "lunar": "136.4052834673",
                "kilometers": "52457428.954895359",
                "miles": "32595534.8775355942"
            },
            "orbiting_body": "Earth"
        },
        {
            "close_approach_date": "2181-09-25",
            "close_approach_date_full": "2181-Sep-25 12:37",
            "epoch_date_close_approach": 6681703020000,
            "relative_velocity": {
                "kilometers_per_second": "15.7707607865",
                "kilometers_per_hour": "56774.7388313424",
                "miles_per_hour": "35277.6148032861"
            },
            "miss_distance": {
                "astronomical": "0.1417651412",
                "lunar": "55.1466399268",
                "kilometers": "21207763.163769244",
                "miles": "13177892.9629498072"
            },
            "orbiting_body": "Earth"
        }
    ],
    "orbital_data": {
        "orbit_id": "46",
        "orbit_determination_date": "2020-10-16 08:02:35",
        "first_observation_date": "2010-05-11",
        "last_observation_date": "2017-01-01",
        "data_arc_in_days": 2427,
        "observations_used": 387,
        "orbit_uncertainty": "0",
        "minimum_orbit_intersection": ".21528",
        "jupiter_tisserand_invariant": "2.699",
        "epoch_osculation": "2459000.5",
        "eccentricity": ".6350594036900582",
        "semi_major_axis": "3.330716669285544",
        "inclination": "23.06729769351697",
        "ascending_node_longitude": "357.7514815133119",
        "orbital_period": "2220.265766405531",
        "perihelion_distance": "1.21551372742853",
        "perihelion_argument": "350.5042636738482",
        "aphelion_distance": "5.445919611142559",
        "perihelion_time": "2459863.125489753527",
        "mean_anomaly": "220.1315297429358",
        "mean_motion": ".1621427513080189",
        "equinox": "J2000",
        "orbit_class": {
            "orbit_class_type": "AMO",
            "orbit_class_description": "Near-Earth asteroid orbits similar to that of 1221 Amor",
            "orbit_class_range": "1.017 AU < q (perihelion) < 1.3 AU"
        }
    },
    "is_sentry_object": false
}